VSP RF A1               
1 59135U 24043AP  26066.03073316  .00000577  00000+0  25199-4 0  9997
2 59135  97.5247 201.5379 0009431 234.6315 125.4042 15.26179596111403
STARLINK-35407          
1 66334U 25253R   26068.46894423  .00025768  00000+0  94236-3 0  9995
2 66334  42.9964 213.5000 0001637 213.2147 146.8603 15.27588831 20217
